CCSDS_OMM_VERS = 2.0
CREATION_DATE  = 
ORIGINATOR     = 

OBJECT_NAME    = TRANSPORTER-15CM
OBJECT_ID      = 2025-276CM
CENTER_NAME    = EARTH
REF_FRAME      = TEME
TIME_SYSTEM    = UTC
MEAN_ELEMENT_THEORY = SGP/SGP4

EPOCH          = 2025-12-28T21:16:02.669664
MEAN_MOTION    = 15.17966744
ECCENTRICITY   = .00023466
INCLINATION    = 97.4397
RA_OF_ASC_NODE = 74.3812
ARG_OF_PERICENTER = 169.7224
MEAN_ANOMALY   = 190.4058

EPHEMERIS_TYPE = 0
CLASSIFICATION_TYPE = U
NORAD_CAT_ID   = 66749
ELEMENT_SET_NO = 999
REV_AT_EPOCH   = 457
BSTAR          = .55704489E-3
MEAN_MOTION_DOT = .11258E-3
MEAN_MOTION_DDOT = 0

CCSDS_OMM_VERS = 2.0
CREATION_DATE  = 
ORIGINATOR     = 

OBJECT_NAME    = TRANSPORTER-15CN
OBJECT_ID      = 2025-276CN
CENTER_NAME    = EARTH
REF_FRAME      = TEME
TIME_SYSTEM    = UTC
MEAN_ELEMENT_THEORY = SGP/SGP4

EPOCH          = 2025-12-28T02:11:44.570112
MEAN_MOTION    = 15.18095390
ECCENTRICITY   = .00023885
INCLINATION    = 97.4439
RA_OF_ASC_NODE = 73.6235
ARG_OF_PERICENTER = 138.1729
MEAN_ANOMALY   = 221.9688

EPHEMERIS_TYPE = 0
CLASSIFICATION_TYPE = U
NORAD_CAT_ID   = 66750
ELEMENT_SET_NO = 999
REV_AT_EPOCH   = 445
BSTAR          = .10967539E-2
MEAN_MOTION_DOT = .22345E-3
MEAN_MOTION_DDOT = 0

CCSDS_OMM_VERS = 2.0
CREATION_DATE  = 
ORIGINATOR     = 

OBJECT_NAME    = ICEYE-X58
OBJECT_ID      = 2025-276CP
CENTER_NAME    = EARTH
REF_FRAME      = TEME
TIME_SYSTEM    = UTC
MEAN_ELEMENT_THEORY = SGP/SGP4

EPOCH          = 2025-12-28T21:17:01.711968
MEAN_MOTION    = 15.17864083
ECCENTRICITY   = .00028687
INCLINATION    = 97.4409
RA_OF_ASC_NODE = 74.3894
ARG_OF_PERICENTER = 183.3842
MEAN_ANOMALY   = 176.7373

EPHEMERIS_TYPE = 0
CLASSIFICATION_TYPE = U
NORAD_CAT_ID   = 66751
ELEMENT_SET_NO = 999
REV_AT_EPOCH   = 457
BSTAR          = .45524169E-3
MEAN_MOTION_DOT = .9159E-4
MEAN_MOTION_DDOT = 0

CCSDS_OMM_VERS = 2.0
CREATION_DATE  = 
ORIGINATOR     = 

OBJECT_NAME    = ICEYE-X59
OBJECT_ID      = 2025-276CQ
CENTER_NAME    = EARTH
REF_FRAME      = TEME
TIME_SYSTEM    = UTC
MEAN_ELEMENT_THEORY = SGP/SGP4

EPOCH          = 2025-12-28T22:57:29.041632
MEAN_MOTION    = 15.17671955
ECCENTRICITY   = .00022955
INCLINATION    = 97.4401
RA_OF_ASC_NODE = 74.4485
ARG_OF_PERICENTER = 207.1859
MEAN_ANOMALY   = 152.9255

EPHEMERIS_TYPE = 0
CLASSIFICATION_TYPE = U
NORAD_CAT_ID   = 66752
ELEMENT_SET_NO = 999
REV_AT_EPOCH   = 458
BSTAR          = .67445063E-3
MEAN_MOTION_DOT = .13533E-3
MEAN_MOTION_DDOT = 0

CCSDS_OMM_VERS = 2.0
CREATION_DATE  = 
ORIGINATOR     = 

OBJECT_NAME    = ICEYE-X60
OBJECT_ID      = 2025-276CR
CENTER_NAME    = EARTH
REF_FRAME      = TEME
TIME_SYSTEM    = UTC
MEAN_ELEMENT_THEORY = SGP/SGP4

EPOCH          = 2025-12-28T21:29:12.581664
MEAN_MOTION    = 15.17442459
ECCENTRICITY   = .00013692
INCLINATION    = 97.4403
RA_OF_ASC_NODE = 74.3738
ARG_OF_PERICENTER = 232.2417
MEAN_ANOMALY   = 127.8693

EPHEMERIS_TYPE = 0
CLASSIFICATION_TYPE = U
NORAD_CAT_ID   = 66753
ELEMENT_SET_NO = 999
REV_AT_EPOCH   = 457
BSTAR          = .45602739E-3
MEAN_MOTION_DOT = .9063E-4
MEAN_MOTION_DDOT = 0

CCSDS_OMM_VERS = 2.0
CREATION_DATE  = 
ORIGINATOR     = 

OBJECT_NAME    = ICEYE-X61
OBJECT_ID      = 2025-276CS
CENTER_NAME    = EARTH
REF_FRAME      = TEME
TIME_SYSTEM    = UTC
MEAN_ELEMENT_THEORY = SGP/SGP4

EPOCH          = 2025-12-28T21:15:31.731552
MEAN_MOTION    = 15.17906529
ECCENTRICITY   = .00027906
INCLINATION    = 97.4402
RA_OF_ASC_NODE = 74.3852
ARG_OF_PERICENTER = 173.2387
MEAN_ANOMALY   = 186.8885

EPHEMERIS_TYPE = 0
CLASSIFICATION_TYPE = U
NORAD_CAT_ID   = 66754
ELEMENT_SET_NO = 999
REV_AT_EPOCH   = 457
BSTAR          = .43573891E-3
MEAN_MOTION_DOT = .8774E-4
MEAN_MOTION_DDOT = 0

CCSDS_OMM_VERS = 2.0
CREATION_DATE  = 
ORIGINATOR     = 

OBJECT_NAME    = ICEYE-X62
OBJECT_ID      = 2025-276CT
CENTER_NAME    = EARTH
REF_FRAME      = TEME
TIME_SYSTEM    = UTC
MEAN_ELEMENT_THEORY = SGP/SGP4

EPOCH          = 2025-12-28T18:12:56.444832
MEAN_MOTION    = 15.17693447
ECCENTRICITY   = .00016567
INCLINATION    = 97.4404
RA_OF_ASC_NODE = 74.2481
ARG_OF_PERICENTER = 199.1393
MEAN_ANOMALY   = 160.9779

EPHEMERIS_TYPE = 0
CLASSIFICATION_TYPE = U
NORAD_CAT_ID   = 66755
ELEMENT_SET_NO = 999
REV_AT_EPOCH   = 455
BSTAR          = .9048981E-3
MEAN_MOTION_DOT = .18202E-3
MEAN_MOTION_DDOT = 0

CCSDS_OMM_VERS = 2.0
CREATION_DATE  = 
ORIGINATOR     = 

OBJECT_NAME    = TRANSPORTER-15CU
OBJECT_ID      = 2025-276CU
CENTER_NAME    = EARTH
REF_FRAME      = TEME
TIME_SYSTEM    = UTC
MEAN_ELEMENT_THEORY = SGP/SGP4

EPOCH          = 2025-12-27T21:30:47.265696
MEAN_MOTION    = 15.13790352
ECCENTRICITY   = .0016107
INCLINATION    = 97.4405
RA_OF_ASC_NODE = 73.4183
ARG_OF_PERICENTER = 152.6114
MEAN_ANOMALY   = 207.5970

EPHEMERIS_TYPE = 0
CLASSIFICATION_TYPE = U
NORAD_CAT_ID   = 66756
ELEMENT_SET_NO = 999
REV_AT_EPOCH   = 442
BSTAR          = -.13429E+0
MEAN_MOTION_DOT = -.2175858E-1
MEAN_MOTION_DDOT = 0

CCSDS_OMM_VERS = 2.0
CREATION_DATE  = 
ORIGINATOR     = 

OBJECT_NAME    = TRANSPORTER-15CV
OBJECT_ID      = 2025-276CV
CENTER_NAME    = EARTH
REF_FRAME      = TEME
TIME_SYSTEM    = UTC
MEAN_ELEMENT_THEORY = SGP/SGP4

EPOCH          = 2025-12-28T21:10:37.116192
MEAN_MOTION    = 15.18166638
ECCENTRICITY   = .00021268
INCLINATION    = 97.4420
RA_OF_ASC_NODE = 74.3979
ARG_OF_PERICENTER = 143.8025
MEAN_ANOMALY   = 216.3354

EPHEMERIS_TYPE = 0
CLASSIFICATION_TYPE = U
NORAD_CAT_ID   = 66757
ELEMENT_SET_NO = 999
REV_AT_EPOCH   = 457
BSTAR          = .53949126E-3
MEAN_MOTION_DOT = .10963E-3
MEAN_MOTION_DDOT = 0

CCSDS_OMM_VERS = 2.0
CREATION_DATE  = 
ORIGINATOR     = 

OBJECT_NAME    = TRANSPORTER-15CW
OBJECT_ID      = 2025-276CW
CENTER_NAME    = EARTH
REF_FRAME      = TEME
TIME_SYSTEM    = UTC
MEAN_ELEMENT_THEORY = SGP/SGP4

EPOCH          = 2025-12-28T22:45:08.724960
MEAN_MOTION    = 15.18160426
ECCENTRICITY   = .00016979
INCLINATION    = 97.4390
RA_OF_ASC_NODE = 74.4509
ARG_OF_PERICENTER = 132.9223
MEAN_ANOMALY   = 227.2154

EPHEMERIS_TYPE = 0
CLASSIFICATION_TYPE = U
NORAD_CAT_ID   = 66758
ELEMENT_SET_NO = 999
REV_AT_EPOCH   = 458
BSTAR          = .52068686E-3
MEAN_MOTION_DOT = .10576E-3
MEAN_MOTION_DDOT = 0

CCSDS_OMM_VERS = 2.0
CREATION_DATE  = 
ORIGINATOR     = 

OBJECT_NAME    = TRANSPORTER-15CX
OBJECT_ID      = 2025-276CX
CENTER_NAME    = EARTH
REF_FRAME      = TEME
TIME_SYSTEM    = UTC
MEAN_ELEMENT_THEORY = SGP/SGP4

EPOCH          = 2025-12-28T22:41:55.430880
MEAN_MOTION    = 15.18319417
ECCENTRICITY   = .00021474
INCLINATION    = 97.4379
RA_OF_ASC_NODE = 74.4485
ARG_OF_PERICENTER = 129.5125
MEAN_ANOMALY   = 230.6300

EPHEMERIS_TYPE = 0
CLASSIFICATION_TYPE = U
NORAD_CAT_ID   = 66759
ELEMENT_SET_NO = 999
REV_AT_EPOCH   = 458
BSTAR          = .64411235E-3
MEAN_MOTION_DOT = .13164E-3
MEAN_MOTION_DDOT = 0

CCSDS_OMM_VERS = 2.0
CREATION_DATE  = 
ORIGINATOR     = 

OBJECT_NAME    = TRANSPORTER-15CY
OBJECT_ID      = 2025-276CY
CENTER_NAME    = EARTH
REF_FRAME      = TEME
TIME_SYSTEM    = UTC
MEAN_ELEMENT_THEORY = SGP/SGP4

EPOCH          = 2025-12-28T22:41:34.816704
MEAN_MOTION    = 15.18277030
ECCENTRICITY   = .00019326
INCLINATION    = 97.4395
RA_OF_ASC_NODE = 74.4567
ARG_OF_PERICENTER = 110.6043
MEAN_ANOMALY   = 249.5398

EPHEMERIS_TYPE = 0
CLASSIFICATION_TYPE = U
NORAD_CAT_ID   = 66760
ELEMENT_SET_NO = 999
REV_AT_EPOCH   = 458
BSTAR          = .1065795E-2
MEAN_MOTION_DOT = .21824E-3
MEAN_MOTION_DDOT = 0

