TRANSPORTER-15CM        
1 66749U 25276CM  25362.88614201  .00011258  00000+0  55704-3 0  9992
2 66749  97.4397  74.3812 0002346 169.7224 190.4058 15.17966744  4577
TRANSPORTER-15CN        
1 66750U 25276CN  25362.09148808  .00022345  00000+0  10968-2 0  9993
2 66750  97.4439  73.6235 0002388 138.1729 221.9688 15.18095390  4450
ICEYE-X58               
1 66751U 25276CP  25362.88682537  .00009159  00000+0  45524-3 0  9998
2 66751  97.4409  74.3894 0002868 183.3842 176.7373 15.17864083  4571
ICEYE-X59               
1 66752U 25276CQ  25362.95658613  .00013533  00000+0  67445-3 0  9992
2 66752  97.4401  74.4485 0002295 207.1859 152.9255 15.17671955  4588
ICEYE-X60               
1 66753U 25276CR  25362.89528451  .00009063  00000+0  45603-3 0  9997
2 66753  97.4403  74.3738 0001369 232.2417 127.8693 15.17442459  4572
ICEYE-X61               
1 66754U 25276CS  25362.88578393  .00008774  00000+0  43574-3 0  9990
2 66754  97.4402  74.3852 0002790 173.2387 186.8885 15.17906529  4579
ICEYE-X62               
1 66755U 25276CT  25362.75898663  .00018202  00000+0  90490-3 0  9998
2 66755  97.4404  74.2481 0001656 199.1393 160.9779 15.17693447  4558
TRANSPORTER-15CU        
1 66756U 25276CU  25361.89638039 -.02175858  00000+0 -13429+0 0  9990
2 66756  97.4405  73.4183 0016107 152.6114 207.5970 15.13790352  4428
TRANSPORTER-15CV        
1 66757U 25276CV  25362.88237403  .00010963  00000+0  53949-3 0  9997
2 66757  97.4420  74.3979 0002126 143.8025 216.3354 15.18166638  4577
TRANSPORTER-15CW        
1 66758U 25276CW  25362.94801765  .00010576  00000+0  52069-3 0  9995
2 66758  97.4390  74.4509 0001697 132.9223 227.2154 15.18160426  4584
TRANSPORTER-15CX        
1 66759U 25276CX  25362.94578045  .00013164  00000+0  64411-3 0  9998
2 66759  97.4379  74.4485 0002147 129.5125 230.6300 15.18319417  4586
TRANSPORTER-15CY        
1 66760U 25276CY  25362.94554186  .00021824  00000+0  10658-2 0  9995
2 66760  97.4395  74.4567 0001932 110.6043 249.5398 15.18277030  4588
